OBJECT_NAME,OBJECT_ID,EPOCH,MEAN_MOTION,ECCENTRICITY,INCLINATION,RA_OF_ASC_NODE,ARG_OF_PERICENTER,MEAN_ANOMALY,EPHEMERIS_TYPE,CLASSIFICATION_TYPE,NORAD_CAT_ID,ELEMENT_SET_NO,REV_AT_EPOCH,BSTAR,MEAN_MOTION_DOT,MEAN_MOTION_DDOT
SKYSAT-A,2013-066C,2024-07-07T18:19:13.798560,15.05289010,.0023803,97.4863,249.4219,231.4557,128.4536,0,U,39418,999,58144,.24011E-3,.3393E-4,0
DUBAISAT-2,2013-066D,2024-07-08T04:06:13.047840,15.00627898,.0011953,97.4109,194.1767,282.8041,77.1847,0,U,39419,999,57967,.36448E-3,.4558E-4,0
GPM-CORE,2014-009C,2024-07-07T21:54:48.416832,15.44534609,.0006597,64.9842,163.6816,259.3812,100.6585,0,U,39574,999,58827,.21232E-3,.9675E-4,0
SENTINEL-1A,2014-016A,2024-07-07T22:15:55.052928,14.59199274,.0001362,98.1793,196.7227,90.5554,269.5802,0,U,39634,999,54661,.51108E-4,.195E-5,0
KAZEOSAT 1,2014-024A,2024-07-08T04:03:28.961280,14.42040211,.0001005,98.3947,266.2745,94.8350,265.2954,0,U,39731,999,53642,.12445E-3,.365E-5,0
ALOS-2,2014-029A,2024-07-08T05:04:45.238944,14.79468280,.0001629,97.9231,286.5521,95.3543,264.7855,0,U,39766,999,54678,.89916E-4,.62E-5,0
KAZEOSAT 2,2014-033A,2024-07-08T01:00:08.004384,14.82563812,.0012832,97.6180,54.1306,134.8010,225.4250,0,U,40010,999,54376,.11035E-3,.839E-5,0
HODOYOSHI-4,2014-033B,2024-07-07T20:43:09.834528,14.84356536,.0026401,97.5801,38.5394,129.6366,230.7185,0,U,40011,999,54343,.25539E-3,.2107E-4,0
DEIMOS-2,2014-033D,2024-07-08T03:45:06.274368,14.88937764,.000202,97.6786,76.1976,111.9330,248.2103,0,U,40013,999,54488,.26184E-3,.2406E-4,0
HODOYOSHI-3,2014-033F,2024-07-07T13:27:55.780128,14.81334172,.0035604,97.5966,14.3033,166.1116,194.1086,0,U,40015,999,54239,.27035E-3,.2084E-4,0
SPOT 7,2014-034A,2024-07-08T04:13:42.208608,14.59426163,.0001029,98.1575,256.6149,94.2453,265.8864,0,U,40053,999,53367,.17315E-3,.775E-5,0
SKYSAT-B,2014-037D,2024-07-07T08:05:55.731840,14.84160768,.0007391,98.3323,102.0002,63.7399,296.4573,0,U,40072,999,54051,.20336E-3,.1641E-4,0
WORLDVIEW-3 (WV-3),2014-048A,2024-07-07T13:07:07.148928,14.85159513,.0001893,97.8678,262.5382,83.3368,276.8062,0,U,40115,999,53659,.18497E-3,.153E-4,0
GAOFEN-2,2014-049A,2024-07-08T03:46:27.865344,14.80834328,.0009961,98.1109,240.2130,14.1637,345.9852,0,U,40118,999,53433,.20987E-3,.1566E-4,0
YAOGAN-21,2014-053A,2024-07-08T01:16:38.390304,15.23181631,.0009265,97.2512,247.4183,98.8587,261.3700,0,U,40143,999,54699,.42187E-3,.9922E-4,0
YAOGAN-22,2014-063A,2024-07-07T07:32:00.592800,13.15484045,.0006198,100.6661,321.3127,354.8800,5.2247,0,U,40275,999,46647,.72423E-4,-.19E-6,0
ASNARO,2014-070A,2024-07-07T21:25:44.828544,15.19776286,.0008237,97.4116,271.0570,137.5629,222.6244,0,U,40298,999,53631,.61565E-3,.13131E-3,0
HODOYOSHI-1,2014-070B,2024-07-08T04:16:39.120384,15.49428281,.0005292,97.1369,250.0580,324.3211,35.7686,0,U,40299,999,53837,.43391E-3,.23792E-3,0
YAOGAN-23,2014-071A,2024-07-07T22:27:47.602368,15.52515069,.0002458,97.6878,176.3974,101.0442,259.1086,0,U,40305,999,53561,.68526E-3,.42053E-3,0
YAOGAN-24,2014-072A,2024-07-08T03:19:51.634848,14.76206641,.001404,98.0583,314.6313,22.3937,337.7882,0,U,40310,999,51913,.18545E-3,.1233E-4,0
CBERS 4,2014-079A,2024-07-08T04:03:20.694528,14.35496707,.0000671,98.3996,257.9532,91.4995,268.6268,0,U,40336,999,50225,.86767E-4,.207E-5,0
RESURS-P 2,2014-087A,2024-07-08T03:57:44.971776,15.60684878,.0005794,97.1516,276.8788,203.2023,156.8974,0,U,40360,999,53433,.36102E-3,.29905E-3,0
YAOGAN-26,2014-088A,2024-07-07T23:10:19.679520,15.23428831,.0002377,97.0825,209.8176,13.0232,347.1067,0,U,40362,999,53046,.50791E-3,.1204E-3,0
SMAP,2015-003A,2024-07-07T14:37:47.995392,14.63375623,.0001317,98.1272,195.7111,86.8388,273.2965,0,U,40376,999,50384,.16508E-3,.806E-5,0
KOMPSAT-3A,2015-014A,2024-07-07T22:21:38.023776,15.22662601,.0002278,97.6142,140.4060,177.2995,182.8254,0,U,40536,999,51286,.41245E-3,.9535E-4,0
SENTINEL-2A,2015-028A,2024-07-07T20:55:31.196640,14.30819273,.0001225,98.5684,263.8473,95.2930,264.8393,0,U,40697,999,47230,.10118E-3,.222E-5,0
GAOFEN-8,2015-030A,2024-07-08T04:36:17.018496,15.24177592,.0006002,97.6577,345.3252,209.3511,150.7389,0,U,40701,999,50284,.59034E-3,.14321E-3,0
CARBONITE 1 (CBNT-1),2015-032D,2024-07-08T01:04:06.137472,14.78659406,.0017068,97.6571,29.1780,95.8755,264.4402,0,U,40718,999,48434,.32669E-3,.2351E-4,0
YAOGAN-27,2015-040A,2024-07-08T04:46:32.712672,13.16019956,.0009002,100.0785,198.0194,53.8412,306.3533,0,U,40878,999,42591,.15405E-3,.16E-6,0
GAOFEN-9 01,2015-047A,2024-07-08T04:37:41.776896,14.79865161,.0027703,97.7288,244.0744,301.3302,58.5199,0,U,40894,999,47520,.19136E-3,.1401E-4,0
LAPAN-A2,2015-052B,2024-06-28T03:33:03.483072,14.77898591,.0013395,5.9997,274.4192,238.9714,120.9097,0,U,40931,999,47308,.12542E-3,.1574E-4,0
