LAPAN-A2                
1 40931U 15052B   24180.14795698  .00001574  00000+0  12542-3 0  9997
2 40931   5.9997 274.4192 0013395 238.9714 120.9097 14.77898591473081
SKYSAT-A                
1 39418U 13066C   24189.76335415  .00003393  00000+0  24011-3 0  9997
2 39418  97.4863 249.4219 0023803 231.4557 128.4536 15.05289010581440
DUBAISAT-2              
1 39419U 13066D   24190.17098435  .00004558  00000+0  36448-3 0  9994
2 39419  97.4109 194.1767 0011953 282.8041  77.1847 15.00627898579671
GPM-CORE                
1 39574U 14009C   24189.91306038  .00009675  00000+0  21232-3 0  9995
2 39574  64.9842 163.6816 0006597 259.3812 100.6585 15.44534609588277
SENTINEL-1A             
1 39634U 14016A   24189.92772052  .00000195  00000+0  51108-4 0  9998
2 39634  98.1793 196.7227 0001362  90.5554 269.5802 14.59199274546613
KAZEOSAT 1              
1 39731U 14024A   24190.16908520  .00000365  00000+0  12445-3 0  9993
2 39731  98.3947 266.2745 0001005  94.8350 265.2954 14.42040211536424
ALOS-2                  
1 39766U 14029A   24190.21163471  .00000620  00000+0  89916-4 0  9992
2 39766  97.9231 286.5521 0001629  95.3543 264.7855 14.79468280546786
KAZEOSAT 2              
1 40010U 14033A   24190.04175931  .00000839  00000+0  11035-3 0  9994
2 40010  97.6180  54.1306 0012832 134.8010 225.4250 14.82563812543765
HODOYOSHI-4             
1 40011U 14033B   24189.86330827  .00002107  00000+0  25539-3 0  9994
2 40011  97.5801  38.5394 0026401 129.6366 230.7185 14.84356536543436
DEIMOS-2                
1 40013U 14033D   24190.15632262  .00002406  00000+0  26184-3 0  9997
2 40013  97.6786  76.1976 0002020 111.9330 248.2103 14.88937764544887
HODOYOSHI-3             
1 40015U 14033F   24189.56106227  .00002084  00000+0  27035-3 0  9997
2 40015  97.5966  14.3033 0035604 166.1116 194.1086 14.81334172542394
SPOT 7                  
1 40053U 14034A   24190.17618297  .00000775  00000+0  17315-3 0  9999
2 40053  98.1575 256.6149 0001029  94.2453 265.8864 14.59426163533675
SKYSAT-B                
1 40072U 14037D   24189.33745060  .00001641  00000+0  20336-3 0  9998
2 40072  98.3323 102.0002 0007391  63.7399 296.4573 14.84160768540511
WORLDVIEW-3 (WV-3)      
1 40115U 14048A   24189.54661052  .00001530  00000+0  18497-3 0  9991
2 40115  97.8678 262.5382 0001893  83.3368 276.8062 14.85159513536599
GAOFEN-2                
1 40118U 14049A   24190.15726696  .00001566  00000+0  20987-3 0  9996
2 40118  98.1109 240.2130 0009961  14.1637 345.9852 14.80834328534338
YAOGAN-21               
1 40143U 14053A   24190.05322211  .00009922  00000+0  42187-3 0  9993
2 40143  97.2512 247.4183 0009265  98.8587 261.3700 15.23181631546999
YAOGAN-22               
1 40275U 14063A   24189.31389575 -.00000019  00000+0  72423-4 0  9999
2 40275 100.6661 321.3127 0006198 354.8800   5.2247 13.15484045466473
ASNARO                  
1 40298U 14070A   24189.89287996  .00013131  00000+0  61565-3 0  9991
2 40298  97.4116 271.0570 0008237 137.5629 222.6244 15.19776286536310
HODOYOSHI-1             
1 40299U 14070B   24190.17823056  .00023792  00000+0  43391-3 0  9999
2 40299  97.1369 250.0580 0005292 324.3211  35.7686 15.49428281538370
YAOGAN-23               
1 40305U 14071A   24189.93596762  .00042053  00000+0  68526-3 0  9999
2 40305  97.6878 176.3974 0002458 101.0442 259.1086 15.52515069535617
YAOGAN-24               
1 40310U 14072A   24190.13879207  .00001233  00000+0  18545-3 0  9999
2 40310  98.0583 314.6313 0014040  22.3937 337.7882 14.76206641519133
CBERS 4                 
1 40336U 14079A   24190.16898952  .00000207  00000+0  86767-4 0  9997
2 40336  98.3996 257.9532 0000671  91.4995 268.6268 14.35496707502254
RESURS-P 2              
1 40360U 14087A   24190.16510384  .00029905  00000+0  36102-3 0  9996
2 40360  97.1516 276.8788 0005794 203.2023 156.8974 15.60684878534338
YAOGAN-26               
1 40362U 14088A   24189.96550555  .00012040  00000+0  50791-3 0  9991
2 40362  97.0825 209.8176 0002377  13.0232 347.1067 15.23428831530464
SMAP                    
1 40376U 15003A   24189.60958328  .00000806  00000+0  16508-3 0  9990
2 40376  98.1272 195.7111 0001317  86.8388 273.2965 14.63375623503843
KOMPSAT-3A              
1 40536U 15014A   24189.93169009  .00009535  00000+0  41245-3 0  9990
2 40536  97.6142 140.4060 0002278 177.2995 182.8254 15.22662601512866
SENTINEL-2A             
1 40697U 15028A   24189.87188885  .00000222  00000+0  10118-3 0  9998
2 40697  98.5684 263.8473 0001225  95.2930 264.8393 14.30819273472308
GAOFEN-8                
1 40701U 15030A   24190.19186364  .00014321  00000+0  59034-3 0  9999
2 40701  97.6577 345.3252 0006002 209.3511 150.7389 15.24177592502843
CARBONITE 1 (CBNT-1)    
1 40718U 15032D   24190.04451548  .00002351  00000+0  32669-3 0  9997
2 40718  97.6571  29.1780 0017068  95.8755 264.4402 14.78659406484340
YAOGAN-27               
1 40878U 15040A   24190.19898973  .00000016  00000+0  15405-3 0  9991
2 40878 100.0785 198.0194 0009002  53.8412 306.3533 13.16019956425911
GAOFEN-9 01             
1 40894U 15047A   24190.19284464  .00001401  00000+0  19136-3 0  9994
2 40894  97.7288 244.0744 0027703 301.3302  58.5199 14.79865161475207
